[{"OBJECT_NAME":"YAOGAN-22","OBJECT_ID":"2014-063A","EPOCH":"2026-03-09T22:32:09.245760","MEAN_MOTION":13.15527162,"ECCENTRICITY":0.00066374,"INCLINATION":100.7539,"RA_OF_ASC_NODE":218.6258,"ARG_OF_PERICENTER":57.4372,"MEAN_ANOMALY":302.7379,"EPHEMERIS_TYPE":0,"CLASSIFICATION_TYPE":"U","NORAD_CAT_ID":40275,"ELEMENT_SET_NO":999,"REV_AT_EPOCH":54676,"BSTAR":6.3182543e-5,"MEAN_MOTION_DOT":-2.3e-7,"MEAN_MOTION_DDOT":0},{"OBJECT_NAME":"ONEWEB-0183","OBJECT_ID":"2021-031K","EPOCH":"2026-03-09T16:56:14.764416","MEAN_MOTION":13.14502732,"ECCENTRICITY":0.00015796,"INCLINATION":87.8987,"RA_OF_ASC_NODE":309.5571,"ARG_OF_PERICENTER":74.0743,"MEAN_ANOMALY":286.0561,"EPHEMERIS_TYPE":0,"CLASSIFICATION_TYPE":"U","NORAD_CAT_ID":48219,"ELEMENT_SET_NO":999,"REV_AT_EPOCH":23525,"BSTAR":-0.00024600886,"MEAN_MOTION_DOT":-7.8e-7,"MEAN_MOTION_DDOT":0}]
